{
  "name": "SATGUS",
  "line1": "1 62713U 25009DJ  25299.22879032  .00007866  00000+0  68500-3 0  9993",
  "line2": "2 62713  97.7248  17.8811 0002630 164.9258 195.2042 14.97181299 42505",
  "fetched_at": "2025-10-27T00:19:41.705961+00:00"
}